start=new Date('2023-01-01T00:00:00.000Z').valueOf();
sats=[{"CLASSIFICATION_TYPE":"U","EPHEMERIS_TYPE":"0","GP_ID":"221887555","INCLINATION":"53.0516","MEAN_ELEMENT_THEORY":"SGP4","FILE":"3728081","TIME_SYSTEM":"UTC","MEAN_ANOMALY":"309.6719","SEMIMAJOR_AXIS":"6925.254","EPOCH":"2022-12-31T18:38:13.557984","PERIAPSIS":"546.100","TLE_LINE1":"1 46173U 20057BJ  22365.77654581  .00006501  00000-0  45456-3 0  9995","LAUNCH_DATE":"2020-08-18","CENTER_NAME":"EARTH","OBJECT_TYPE":"PAYLOAD","SITE":"AFETR","TLE_LINE2":"2 46173  53.0516 141.6274 0001472  50.4400 309.6719 15.06430766130631","APOAPSIS":"548.139","MEAN_MOTION_DOT":"0.00006501","ECCENTRICITY":"0.00014720","REF_FRAME":"TEME","NORAD_CAT_ID":"46173","OBJECT_NAME":"STARLINK-1640","DECAY_DATE":null,"REV_AT_EPOCH":"13063","BSTAR":"0.00045456000000","ELEMENT_SET_NO":"999","RA_OF_ASC_NODE":"141.6274","MEAN_MOTION":"15.06430766","OBJECT_ID":"2020-057BJ","MEAN_MOTION_DDOT":"0.0000000000000","ARG_OF_PERICENTER":"50.4400","COUNTRY_CODE":"US","PERIOD":"95.590","RCS_SIZE":"LARGE"},{"COUNTRY_CODE":"US","ARG_OF_PERICENTER":"54.7088","MEAN_MOTION_DDOT":"0.0000000000000","PERIOD":"95.592","RCS_SIZE":"LARGE","BSTAR":"0.00015253000000","RA_OF_ASC_NODE":"142.1872","ELEMENT_SET_NO":"999","OBJECT_ID":"2020-057BK","MEAN_MOTION":"15.06399685","ECCENTRICITY":"0.00013260","REF_FRAME":"TEME","OBJECT_NAME":"STARLINK-1641","NORAD_CAT_ID":"46174","REV_AT_EPOCH":"13061","DECAY_DATE":null,"TLE_LINE2":"2 46174  53.0548 142.1872 0001326  54.7088 305.4025 15.06399685130610","APOAPSIS":"548.133","SITE":"AFETR","MEAN_MOTION_DOT":"0.00001991","LAUNCH_DATE":"2020-08-18","TLE_LINE1":"1 46174U 20057BK  22365.65120807  .00001991  00000-0  15253-3 0  9992","PERIAPSIS":"546.296","CENTER_NAME":"EARTH","OBJECT_TYPE":"PAYLOAD","TIME_SYSTEM":"UTC","MEAN_ANOMALY":"305.4025","SEMIMAJOR_AXIS":"6925.350","EPOCH":"2022-12-31T15:37:44.377248","GP_ID":"221888294","INCLINATION":"53.0548","FILE":"3728081","MEAN_ELEMENT_THEORY":"SGP4","CLASSIFICATION_TYPE":"U","EPHEMERIS_TYPE":"0"},{"PERIOD":"95.591","RCS_SIZE":"LARGE","MEAN_MOTION_DDOT":"0.0000000000000","COUNTRY_CODE":"US","ARG_OF_PERICENTER":"59.1122","ELEMENT_SET_NO":"999","RA_OF_ASC_NODE":"156.8463","OBJECT_ID":"2020-062A","MEAN_MOTION":"15.06414036","BSTAR":"0.00010640000000","NORAD_CAT_ID":"46325","OBJECT_NAME":"STARLINK-1734","DECAY_DATE":null,"REV_AT_EPOCH":"13011","ECCENTRICITY":"0.00015500","REF_FRAME":"TEME","MEAN_MOTION_DOT":"0.00001304","TLE_LINE2":"2 46325  53.0541 156.8463 0001550  59.1122 301.0019 15.06414036130114","APOAPSIS":"548.244","SITE":"AFETR","OBJECT_TYPE":"PAYLOAD","TLE_LINE1":"1 46325U 20062A   22365.72908325  .00001304  00000-0  10640-3 0  9996","PERIAPSIS":"546.097","LAUNCH_DATE":"2020-09-03","CENTER_NAME":"EARTH","MEAN_ANOMALY":"301.0019","SEMIMAJOR_AXIS":"6925.306","EPOCH":"2022-12-31T17:29:52.792800","TIME_SYSTEM":"UTC","INCLINATION":"53.0541","FILE":"3728081","MEAN_ELEMENT_THEORY":"SGP4","GP_ID":"221887315","EPHEMERIS_TYPE":"0","CLASSIFICATION_TYPE":"U"},{"GP_ID":"221888067","FILE":"3728081","MEAN_ELEMENT_THEORY":"SGP4","INCLINATION":"53.0523","CLASSIFICATION_TYPE":"U","EPHEMERIS_TYPE":"0","CENTER_NAME":"EARTH","LAUNCH_DATE":"2020-09-03","PERIAPSIS":"546.310","TLE_LINE1":"1 46326U 20062B   22365.72682259  .00002595  00000-0  19306-3 0  9993","OBJECT_TYPE":"PAYLOAD","TIME_SYSTEM":"UTC","SEMIMAJOR_AXIS":"6925.369","EPOCH":"2022-12-31T17:26:37.471776","MEAN_ANOMALY":"292.2973","REF_FRAME":"TEME","ECCENTRICITY":"0.00013350","REV_AT_EPOCH":"12887","DECAY_DATE":null,"OBJECT_NAME":"STARLINK-1654","NORAD_CAT_ID":"46326","TLE_LINE2":"2 46326  53.0523 202.0936 0001335  67.8157 292.2973 15.06393299128876","SITE":"AFETR","APOAPSIS":"548.159","MEAN_MOTION_DOT":"0.00002595","ARG_OF_PERICENTER":"67.8157","COUNTRY_CODE":"US","MEAN_MOTION_DDOT":"0.0000000000000","RCS_SIZE":"LARGE","PERIOD":"95.593","BSTAR":"0.00019306000000","MEAN_MOTION":"15.06393299","OBJECT_ID":"2020-062B","RA_OF_ASC_NODE":"202.0936","ELEMENT_SET_NO":"999"},{"REF_FRAME":"TEME","ECCENTRICITY":"0.00012630","DECAY_DATE":null,"REV_AT_EPOCH":"12888","NORAD_CAT_ID":"46327","OBJECT_NAME":"STARLINK-1673","TLE_LINE2":"2 46327  53.0527 201.4471 0001263 110.3001 249.8124 15.06400359128883","APOAPSIS":"548.087","SITE":"AFETR","MEAN_MOTION_DOT":"0.00004093","MEAN_MOTION_DDOT":"0.0000000000000","ARG_OF_PERICENTER":"110.3001","COUNTRY_CODE":"US","RCS_SIZE":"LARGE","PERIOD":"95.592","BSTAR":"0.00029350000000","MEAN_MOTION":"15.06400359","OBJECT_ID":"2020-062C","ELEMENT_SET_NO":"999","RA_OF_ASC_NODE":"201.4471","GP_ID":"221887806","MEAN_ELEMENT_THEORY":"SGP4","FILE":"3728081","INCLINATION":"53.0527","CLASSIFICATION_TYPE":"U","EPHEMERIS_TYPE":"0","CENTER_NAME":"EARTH","PERIAPSIS":"546.338","TLE_LINE1":"1 46327U 20062C   22365.81525605  .00004093  00000-0  29350-3 0  9990","LAUNCH_DATE":"2020-09-03","OBJECT_TYPE":"PAYLOAD","TIME_SYSTEM":"UTC","SEMIMAJOR_AXIS":"6925.347","EPOCH":"2022-12-31T19:33:58.122720","MEAN_ANOMALY":"249.8124"},{"PERIOD":"95.592","RCS_SIZE":"LARGE","MEAN_MOTION_DDOT":"0.0000000000000","COUNTRY_CODE":"US","ARG_OF_PERICENTER":"83.0461","ELEMENT_SET_NO":"999","RA_OF_ASC_NODE":"181.5520","OBJECT_ID":"2020-062D","MEAN_MOTION":"15.06400485","BSTAR":"0.00020160000000","NORAD_CAT_ID":"46328","OBJECT_NAME":"STARLINK-1686","DECAY_DATE":null,"REV_AT_EPOCH":"12916","ECCENTRICITY":"0.00013240","REF_FRAME":"TEME","MEAN_MOTION_DOT":"0.00002723","TLE_LINE2":"2 46328  53.0519 181.5520 0001324  83.0461 277.0678 15.06400485129161","APOAPSIS":"548.129","SITE":"AFETR","OBJECT_TYPE":"PAYLOAD","PERIAPSIS":"546.295","TLE_LINE1":"1 46328U 20062D   22365.79497652  .00002723  00000-0  20160-3 0  9996","LAUNCH_DATE":"2020-09-03","CENTER_NAME":"EARTH","MEAN_ANOMALY":"277.0678","SEMIMAJOR_AXIS":"6925.347","EPOCH":"2022-12-31T19:04:45.971328","TIME_SYSTEM":"UTC","INCLINATION":"53.0519","FILE":"3728081","MEAN_ELEMENT_THEORY":"SGP4","GP_ID":"221886566","EPHEMERIS_TYPE":"0","CLASSIFICATION_TYPE":"U"},{"TLE_LINE2":"2 46329  53.0538 181.7018 0000627 149.4715 210.6310 15.06402540129150","APOAPSIS":"547.640","SITE":"AFETR","MEAN_MOTION_DOT":"0.00007081","REF_FRAME":"TEME","ECCENTRICITY":"0.00006270","DECAY_DATE":null,"REV_AT_EPOCH":"12915","NORAD_CAT_ID":"46329","OBJECT_NAME":"STARLINK-1695","BSTAR":"0.00049371000000","MEAN_MOTION":"15.06402540","OBJECT_ID":"2020-062E","ELEMENT_SET_NO":"999","RA_OF_ASC_NODE":"181.7018","MEAN_MOTION_DDOT":"0.0000000000000","COUNTRY_CODE":"US","ARG_OF_PERICENTER":"149.4715","RCS_SIZE":"LARGE","PERIOD":"95.592","CLASSIFICATION_TYPE":"U","EPHEMERIS_TYPE":"0","GP_ID":"221886816","MEAN_ELEMENT_THEORY":"SGP4","FILE":"3728081","INCLINATION":"53.0538","TIME_SYSTEM":"UTC","SEMIMAJOR_AXIS":"6925.341","EPOCH":"2022-12-31T18:16:58.656864","MEAN_ANOMALY":"210.6310","CENTER_NAME":"EARTH","TLE_LINE1":"1 46329U 20062E   22365.76179001  .00007081  00000-0  49371-3 0  9996","PERIAPSIS":"546.772","LAUNCH_DATE":"2020-09-03","OBJECT_TYPE":"PAYLOAD"},{"MEAN_ANOMALY":"272.2905","SEMIMAJOR_AXIS":"6925.377","EPOCH":"2022-12-31T18:01:05.239776","TIME_SYSTEM":"UTC","OBJECT_TYPE":"PAYLOAD","PERIAPSIS":"546.315","TLE_LINE1":"1 46330U 20062F   22365.75075509  .00002339  00000-0  17592-3 0  9996","LAUNCH_DATE":"2020-09-03","CENTER_NAME":"EARTH","EPHEMERIS_TYPE":"0","CLASSIFICATION_TYPE":"U","INCLINATION":"53.0542","FILE":"3728081","MEAN_ELEMENT_THEORY":"SGP4","GP_ID":"221887567","ELEMENT_SET_NO":"999","RA_OF_ASC_NODE":"181.7424","MEAN_MOTION":"15.06390683","OBJECT_ID":"2020-062F","BSTAR":"0.00017592000000","PERIOD":"95.593","RCS_SIZE":"LARGE","MEAN_MOTION_DDOT":"0.0000000000000","COUNTRY_CODE":"US","ARG_OF_PERICENTER":"87.8237","MEAN_MOTION_DOT":"0.00002339","APOAPSIS":"548.169","TLE_LINE2":"2 46330  53.0542 181.7424 0001338  87.8237 272.2905 15.06390683129161","SITE":"AFETR","NORAD_CAT_ID":"46330","OBJECT_NAME":"STARLINK-1710","DECAY_DATE":null,"REV_AT_EPOCH":"12916","ECCENTRICITY":"0.00013380","REF_FRAME":"TEME"},{"TIME_SYSTEM":"UTC","MEAN_ANOMALY":"257.7648","SEMIMAJOR_AXIS":"6925.395","EPOCH":"2022-12-31T20:27:03.775392","LAUNCH_DATE":"2020-09-03","PERIAPSIS":"546.440","TLE_LINE1":"1 46331U 20062G   22365.85212703  .00001550  00000-0  12300-3 0  9993","CENTER_NAME":"EARTH","OBJECT_TYPE":"PAYLOAD","CLASSIFICATION_TYPE":"U","EPHEMERIS_TYPE":"0","GP_ID":"221888306","INCLINATION":"53.0536","MEAN_ELEMENT_THEORY":"SGP4","FILE":"3728081","BSTAR":"0.00012300000000","RA_OF_ASC_NODE":"201.2777","ELEMENT_SET_NO":"999","OBJECT_ID":"2020-062G","MEAN_MOTION":"15.06385010","ARG_OF_PERICENTER":"102.3473","COUNTRY_CODE":"US","MEAN_MOTION_DDOT":"0.0000000000000","PERIOD":"95.593","RCS_SIZE":"LARGE","APOAPSIS":"548.079","TLE_LINE2":"2 46331  53.0536 201.2777 0001184 102.3473 257.7648 15.06385010128897","SITE":"AFETR","MEAN_MOTION_DOT":"0.00001550","ECCENTRICITY":"0.00011840","REF_FRAME":"TEME","OBJECT_NAME":"STARLINK-1719","NORAD_CAT_ID":"46331","REV_AT_EPOCH":"12889","DECAY_DATE":null},{"PERIOD":"95.581","RCS_SIZE":"LARGE","MEAN_MOTION_DDOT":"0.0000000000000","COUNTRY_CODE":"US","ARG_OF_PERICENTER":"79.4307","ELEMENT_SET_NO":"999","RA_OF_ASC_NODE":"201.8360","MEAN_MOTION":"15.06580300","OBJECT_ID":"2020-062H","BSTAR":"0.00039792000000","NORAD_CAT_ID":"46332","OBJECT_NAME":"STARLINK-1721","DECAY_DATE":null,"REV_AT_EPOCH":"12887","ECCENTRICITY":"0.00017080","REF_FRAME":"TEME","MEAN_MOTION_DOT":"0.00005679","TLE_LINE2":"2 46332  53.0518 201.8360 0001708  79.4307 280.6875 15.06580300128878","SITE":"AFETR","APOAPSIS":"547.844","OBJECT_TYPE":"PAYLOAD","TLE_LINE1":"1 46332U 20062H   22365.72947408  .00005679  00000-0  39792-3 0  9997","PERIAPSIS":"545.478","LAUNCH_DATE":"2020-09-03","CENTER_NAME":"EARTH","MEAN_ANOMALY":"280.6875","SEMIMAJOR_AXIS":"6924.796","EPOCH":"2022-12-31T17:30:26.560512","TIME_SYSTEM":"UTC","INCLINATION":"53.0518","MEAN_ELEMENT_THEORY":"SGP4","FILE":"3728081","GP_ID":"221887067","EPHEMERIS_TYPE":"0","CLASSIFICATION_TYPE":"U"}];
